[
  {
    "COMMENT": "GENERATED VIA SPACETRACK.ORG API",
    "ORIGINATOR": "18 SPCS",
    "NORAD_CAT_ID": "25260",
    "OBJECT_NAME": "SPOT 4",
    "OBJECT_TYPE": "PAYLOAD",
    "CLASSIFICATION_TYPE": "U",
    "INTLDES": "98017A",
    "EPOCH": "2023-05-30 17:07:34",
    "EPOCH_MICROSECONDS": "52448",
    "MEAN_MOTION": "14.54186199",
    "ECCENTRICITY": "0.0014072",
    "INCLINATION": "98.2627",
    "RA_OF_ASC_NODE": "243.9122",
    "ARG_OF_PERICENTER": "65.8145",
    "MEAN_ANOMALY": "294.4521",
    "EPHEMERIS_TYPE": "0",
    "ELEMENT_SET_NO": "999",
    "REV_AT_EPOCH": "31761",
    "BSTAR": "0.000099917",
    "MEAN_MOTION_DOT": "0.00000378",
    "MEAN_MOTION_DDOT": "0",
    "FILE": "3921162",
    "TLE_LINE0": "0 SPOT 4",
    "TLE_LINE1": "1 25260U 98017A   23150.71358857  .00000378  00000-0  99917-4 0  9992",
    "TLE_LINE2": "2 25260  98.2627 243.9122 0014072  65.8145 294.4521 14.54186199317610",
    "OBJECT_ID": "1998-017A",
    "OBJECT_NUMBER": "25260",
    "SEMIMAJOR_AXIS": "7090.146",
    "PERIOD": "99.024",
    "APOGEE": "721.988",
    "PERIGEE": "702.033",
    "DECAYED": "0"
  },
  {
    "COMMENT": "GENERATED VIA SPACETRACK.ORG API",
    "ORIGINATOR": "18 SPCS",
    "NORAD_CAT_ID": "25260",
    "OBJECT_NAME": "SPOT 4",
    "OBJECT_TYPE": "PAYLOAD",
    "CLASSIFICATION_TYPE": "U",
    "INTLDES": "98017A",
    "EPOCH": "2023-05-30 20:25:43",
    "EPOCH_MICROSECONDS": "981536",
    "MEAN_MOTION": "14.54186303",
    "ECCENTRICITY": "0.0014067",
    "INCLINATION": "98.2627",
    "RA_OF_ASC_NODE": "244.0481",
    "ARG_OF_PERICENTER": "65.405",
    "MEAN_ANOMALY": "294.8611",
    "EPHEMERIS_TYPE": "0",
    "ELEMENT_SET_NO": "999",
    "REV_AT_EPOCH": "31739",
    "BSTAR": "0.000099408",
    "MEAN_MOTION_DOT": "0.00000376",
    "MEAN_MOTION_DDOT": "0",
    "FILE": "3921192",
    "TLE_LINE0": "0 SPOT 4",
    "TLE_LINE1": "1 25260U 98017A   23150.85120349  .00000376  00000-0  99408-4 0  9993",
    "TLE_LINE2": "2 25260  98.2627 244.0481 0014067  65.4050 294.8611 14.54186303317391",
    "OBJECT_ID": "1998-017A",
    "OBJECT_NUMBER": "25260",
    "SEMIMAJOR_AXIS": "7090.145",
    "PERIOD": "99.024",
    "APOGEE": "721.984",
    "PERIGEE": "702.037",
    "DECAYED": "0"
  },
  {
    "COMMENT": "GENERATED VIA SPACETRACK.ORG API",
    "ORIGINATOR": "18 SPCS",
    "NORAD_CAT_ID": "25260",
    "OBJECT_NAME": "SPOT 4",
    "OBJECT_TYPE": "PAYLOAD",
    "CLASSIFICATION_TYPE": "U",
    "INTLDES": "98017A",
    "EPOCH": "2023-05-31 04:41:08",
    "EPOCH_MICROSECONDS": "806848",
    "MEAN_MOTION": "14.54186687",
    "ECCENTRICITY": "0.0014058",
    "INCLINATION": "98.2627",
    "RA_OF_ASC_NODE": "244.3877",
    "ARG_OF_PERICENTER": "64.444",
    "MEAN_ANOMALY": "295.8208",
    "EPHEMERIS_TYPE": "0",
    "ELEMENT_SET_NO": "999",
    "REV_AT_EPOCH": "31768",
    "BSTAR": "0.00010367",
    "MEAN_MOTION_DOT": "0.00000394",
    "MEAN_MOTION_DDOT": "0",
    "FILE": "3921422",
    "TLE_LINE0": "0 SPOT 4",
    "TLE_LINE1": "1 25260U 98017A   23151.19524082  .00000394  00000-0  10367-3 0  9999",
    "TLE_LINE2": "2 25260  98.2627 244.3877 0014058  64.4440 295.8208 14.54186687317685",
    "OBJECT_ID": "1998-017A",
    "OBJECT_NUMBER": "25260",
    "SEMIMAJOR_AXIS": "7090.144",
    "PERIOD": "99.024",
    "APOGEE": "721.976",
    "PERIGEE": "702.042",
    "DECAYED": "0"
  },
  {
    "COMMENT": "GENERATED VIA SPACETRACK.ORG API",
    "ORIGINATOR": "18 SPCS",
    "NORAD_CAT_ID": "25260",
    "OBJECT_NAME": "SPOT 4",
    "OBJECT_TYPE": "PAYLOAD",
    "CLASSIFICATION_TYPE": "U",
    "INTLDES": "98017A",
    "EPOCH": "2023-05-31 06:20:13",
    "EPOCH_MICROSECONDS": "768800",
    "MEAN_MOTION": "14.54186751",
    "ECCENTRICITY": "0.0014056",
    "INCLINATION": "98.2627",
    "RA_OF_ASC_NODE": "244.4557",
    "ARG_OF_PERICENTER": "64.2469",
    "MEAN_ANOMALY": "296.0177",
    "EPHEMERIS_TYPE": "0",
    "ELEMENT_SET_NO": "999",
    "REV_AT_EPOCH": "31769",
    "BSTAR": "0.00010346",
    "MEAN_MOTION_DOT": "0.00000393",
    "MEAN_MOTION_DDOT": "0",
    "FILE": "3921746",
    "TLE_LINE0": "0 SPOT 4",
    "TLE_LINE1": "1 25260U 98017A   23151.26404825  .00000393  00000-0  10346-3 0  9995",
    "TLE_LINE2": "2 25260  98.2627 244.4557 0014056  64.2469 296.0177 14.54186751317699",
    "OBJECT_ID": "1998-017A",
    "OBJECT_NUMBER": "25260",
    "SEMIMAJOR_AXIS": "7090.144",
    "PERIOD": "99.024",
    "APOGEE": "721.975",
    "PERIGEE": "702.043",
    "DECAYED": "0"
  },
  {
    "COMMENT": "GENERATED VIA SPACETRACK.ORG API",
    "ORIGINATOR": "18 SPCS",
    "NORAD_CAT_ID": "25260",
    "OBJECT_NAME": "SPOT 4",
    "OBJECT_TYPE": "PAYLOAD",
    "CLASSIFICATION_TYPE": "U",
    "INTLDES": "98017A",
    "EPOCH": "2023-05-31 06:20:13",
    "EPOCH_MICROSECONDS": "768800",
    "MEAN_MOTION": "14.54186751",
    "ECCENTRICITY": "0.0014056",
    "INCLINATION": "98.2627",
    "RA_OF_ASC_NODE": "244.4557",
    "ARG_OF_PERICENTER": "64.2469",
    "MEAN_ANOMALY": "296.0177",
    "EPHEMERIS_TYPE": "0",
    "ELEMENT_SET_NO": "999",
    "REV_AT_EPOCH": "31745",
    "BSTAR": "0.00010346",
    "MEAN_MOTION_DOT": "0.00000393",
    "MEAN_MOTION_DDOT": "0",
    "FILE": "3921767",
    "TLE_LINE0": "0 SPOT 4",
    "TLE_LINE1": "1 25260U 98017A   23151.26404825  .00000393  00000-0  10346-3 0  9995",
    "TLE_LINE2": "2 25260  98.2627 244.4557 0014056  64.2469 296.0177 14.54186751317453",
    "OBJECT_ID": "1998-017A",
    "OBJECT_NUMBER": "25260",
    "SEMIMAJOR_AXIS": "7090.144",
    "PERIOD": "99.024",
    "APOGEE": "721.975",
    "PERIGEE": "702.043",
    "DECAYED": "0"
  },
  {
    "COMMENT": "GENERATED VIA SPACETRACK.ORG API",
    "ORIGINATOR": "18 SPCS",
    "NORAD_CAT_ID": "25260",
    "OBJECT_NAME": "SPOT 4",
    "OBJECT_TYPE": "PAYLOAD",
    "CLASSIFICATION_TYPE": "U",
    "INTLDES": "98017A",
    "EPOCH": "2023-05-31 19:32:53",
    "EPOCH_MICROSECONDS": "454048",
    "MEAN_MOTION": "14.54187303",
    "ECCENTRICITY": "0.0014045",
    "INCLINATION": "98.2627",
    "RA_OF_ASC_NODE": "244.9992",
    "ARG_OF_PERICENTER": "62.7031",
    "MEAN_ANOMALY": "297.5595",
    "EPHEMERIS_TYPE": "0",
    "ELEMENT_SET_NO": "999",
    "REV_AT_EPOCH": "31777",
    "BSTAR": "0.00010448",
    "MEAN_MOTION_DOT": "0.00000397",
    "MEAN_MOTION_DDOT": "0",
    "FILE": "3921960",
    "TLE_LINE0": "0 SPOT 4",
    "TLE_LINE1": "1 25260U 98017A   23151.81450757  .00000397  00000-0  10448-3 0  9998",
    "TLE_LINE2": "2 25260  98.2627 244.9992 0014045  62.7031 297.5595 14.54187303317776",
    "OBJECT_ID": "1998-017A",
    "OBJECT_NUMBER": "25260",
    "SEMIMAJOR_AXIS": "7090.142",
    "PERIOD": "99.024",
    "APOGEE": "721.965",
    "PERIGEE": "702.049",
    "DECAYED": "0"
  },
  {
    "COMMENT": "GENERATED VIA SPACETRACK.ORG API",
    "ORIGINATOR": "18 SPCS",
    "NORAD_CAT_ID": "25260",
    "OBJECT_NAME": "SPOT 4",
    "OBJECT_TYPE": "PAYLOAD",
    "CLASSIFICATION_TYPE": "U",
    "INTLDES": "98017A",
    "EPOCH": "2023-06-01 05:27:23",
    "EPOCH_MICROSECONDS": "205888",
    "MEAN_MOTION": "14.54187806",
    "ECCENTRICITY": "0.0014034",
    "INCLINATION": "98.2627",
    "RA_OF_ASC_NODE": "245.4068",
    "ARG_OF_PERICENTER": "61.5217",
    "MEAN_ANOMALY": "298.7391",
    "EPHEMERIS_TYPE": "0",
    "ELEMENT_SET_NO": "999",
    "REV_AT_EPOCH": "31783",
    "BSTAR": "0.00010946",
    "MEAN_MOTION_DOT": "0.00000419",
    "MEAN_MOTION_DDOT": "0",
    "FILE": "3922291",
    "TLE_LINE0": "0 SPOT 4",
    "TLE_LINE1": "1 25260U 98017A   23152.22735192  .00000419  00000-0  10946-3 0  9991",
    "TLE_LINE2": "2 25260  98.2627 245.4068 0014034  61.5217 298.7391 14.54187806317839",
    "OBJECT_ID": "1998-017A",
    "OBJECT_NUMBER": "25260",
    "SEMIMAJOR_AXIS": "7090.141",
    "PERIOD": "99.024",
    "APOGEE": "721.956",
    "PERIGEE": "702.055",
    "DECAYED": "0"
  },
  {
    "COMMENT": "GENERATED VIA SPACETRACK.ORG API",
    "ORIGINATOR": "18 SPCS",
    "NORAD_CAT_ID": "25260",
    "OBJECT_NAME": "SPOT 4",
    "OBJECT_TYPE": "PAYLOAD",
    "CLASSIFICATION_TYPE": "U",
    "INTLDES": "98017A",
    "EPOCH": "2023-06-01 05:27:23",
    "EPOCH_MICROSECONDS": "205888",
    "MEAN_MOTION": "14.54187806",
    "ECCENTRICITY": "0.0014034",
    "INCLINATION": "98.2627",
    "RA_OF_ASC_NODE": "245.4068",
    "ARG_OF_PERICENTER": "61.5217",
    "MEAN_ANOMALY": "298.7391",
    "EPHEMERIS_TYPE": "0",
    "ELEMENT_SET_NO": "999",
    "REV_AT_EPOCH": "31759",
    "BSTAR": "0.00010946",
    "MEAN_MOTION_DOT": "0.00000419",
    "MEAN_MOTION_DDOT": "0",
    "FILE": "3922365",
    "TLE_LINE0": "0 SPOT 4",
    "TLE_LINE1": "1 25260U 98017A   23152.22735192  .00000419  00000-0  10946-3 0  9991",
    "TLE_LINE2": "2 25260  98.2627 245.4068 0014034  61.5217 298.7391 14.54187806317592",
    "OBJECT_ID": "1998-017A",
    "OBJECT_NUMBER": "25260",
    "SEMIMAJOR_AXIS": "7090.141",
    "PERIOD": "99.024",
    "APOGEE": "721.956",
    "PERIGEE": "702.055",
    "DECAYED": "0"
  },
  {
    "COMMENT": "GENERATED VIA SPACETRACK.ORG API",
    "ORIGINATOR": "18 SPCS",
    "NORAD_CAT_ID": "25260",
    "OBJECT_NAME": "SPOT 4",
    "OBJECT_TYPE": "PAYLOAD",
    "CLASSIFICATION_TYPE": "U",
    "INTLDES": "98017A",
    "EPOCH": "2023-06-02 04:34:32",
    "EPOCH_MICROSECONDS": "594592",
    "MEAN_MOTION": "14.54188682",
    "ECCENTRICITY": "0.0014006",
    "INCLINATION": "98.2628",
    "RA_OF_ASC_NODE": "246.358",
    "ARG_OF_PERICENTER": "58.7981",
    "MEAN_ANOMALY": "301.4586",
    "EPHEMERIS_TYPE": "0",
    "ELEMENT_SET_NO": "999",
    "REV_AT_EPOCH": "31797",
    "BSTAR": "0.00010889",
    "MEAN_MOTION_DOT": "0.00000416",
    "MEAN_MOTION_DDOT": "0",
    "FILE": "3922769",
    "TLE_LINE0": "0 SPOT 4",
    "TLE_LINE1": "1 25260U 98017A   23153.19065503  .00000416  00000-0  10889-3 0  9993",
    "TLE_LINE2": "2 25260  98.2628 246.3580 0014006  58.7981 301.4586 14.54188682317970",
    "OBJECT_ID": "1998-017A",
    "OBJECT_NUMBER": "25260",
    "SEMIMAJOR_AXIS": "7090.138",
    "PERIOD": "99.024",
    "APOGEE": "721.933",
    "PERIGEE": "702.072",
    "DECAYED": "0"
  }
]